PROBA-1                 
1 26958U 01049B   26194.15527734  .00001584  00000+0  10501-3 0  9997
2 26958  97.9606 203.5954 0055896  36.4719 324.0294 15.07611032347532
CUTE-1 (CO-55)          
1 27844U 03031E   26193.81805928  .00000160  00000+0  88191-4 0  9991
2 27844  98.6742 202.0549 0010788 108.7901 251.4449 14.24350634195326
CUBESAT XI-IV (CO-57)   
1 27848U 03031J   26193.53826736  .00000128  00000+0  75348-4 0  9998
2 27848  98.6772 201.4707 0010448 126.3839 233.8305 14.23633637194983
APRIZESAT 4             
1 35684U 09041D   26193.74598681  .00000345  00000+0  48023-4 0  9991
2 35684  98.1404 269.5751 0042095 237.6607 122.0528 14.83911924915153
APRIZESAT 3             
1 35686U 09041F   26193.91201242  .00001071  00000+0  97248-4 0  9996
2 35686  98.2094 348.3734 0060928 343.4705  16.4527 14.96306654920229
PROBA-2                 
1 36037U 09059B   26193.96246225  .00000091  00000+0  31709-4 0  9992
2 36037  98.2458  16.9589 0012848 195.7645 164.3153 14.54873144885279
APRIZESAT 5             
1 37792U 11044E   26193.74675928  .00000412  00000+0  59437-4 0  9995
2 37792  98.2450 127.5127 0050725 280.8012  78.7493 14.81125043802572
APRIZESAT 6             
1 37793U 11044F   26193.75595536  .00000372  00000+0  60008-4 0  9994
2 37793  98.2341 104.7757 0043259   6.0555  56.2773 14.76954509800922
PROBA-V                 
1 39159U 13021A   26193.91359826  .00000030  00000+0  30983-4 0  9997
2 39159  98.3604 171.2523 0005320  65.3882 294.7851 14.23603242684777
APRIZESAT 7             
1 39416U 13066A   26194.18262741  .00000445  00000+0  49425-4 0  9992
2 39416  97.7721 147.0313 0037107 123.7441 236.7322 14.91616707685104
APRIZESAT 8             
1 39425U 13066K   26193.83495382  .00000411  00000+0  50456-4 0  9991
2 39425  97.8228 140.9470 0045293 199.7165 160.2302 14.87694379683488
BUGSAT-1 (TITA)         
1 40014U 14033E   26194.24469416  .00003949  00000+0  20814-3 0  9990
2 40014  98.0440 288.3220 0029206  92.3621 268.0955 15.15870807659785
SAUDISAT 4              
1 40016U 14033G   26193.88538433  .00000266  00000+0  41939-4 0  9998
2 40016  97.7614 339.1360 0044445 351.6287   8.4179 14.79574332649873
APRIZESAT 9             
1 40018U 14033J   26194.20313194  .00000351  00000+0  58823-4 0  9997
2 40018  97.9091 326.7703 0067386 116.2105 244.6052 14.74251105647396
APRIZESAT 10            
1 40019U 14033K   26193.90894981  .00000318  00000+0  57760-4 0  9994
2 40019  97.9678 320.2989 0078540 190.6595 169.2950 14.70909330646031
TECHDEMOSAT-1 (TDS-1)   
1 40076U 14037H   26193.94288650  .00004899  00000+0  27665-3 0  9993
2 40076  98.3822 188.7171 0006686 165.8610 194.2807 15.13659908652121
TECHNOSAT               
1 42829U 17042E   26194.04563934  .00002100  00000+0  15133-3 0  9993
2 42829  97.4311 350.7249 0017621  10.4272 349.7317 15.05103327490593
FLYING LAPTOP           
1 42831U 17042G   26194.18056238  .00001931  00000+0  15400-3 0  9993
2 42831  97.4792 348.7338 0019781  38.9576 321.3069 15.01303935490353
HAWK-A                  
1 43765U 18099H   26193.67931596  .00004140  00000+0  16642-3 0  9999
2 43765  97.3903 245.5853 0034452 192.8190 167.2175 15.24944360416983
HAWK-B                  
1 43794U 18099AN  26194.12562476  .00003736  00000+0  15939-3 0  9997
2 43794  97.3951 245.3861 0031175 209.4603 150.4878 15.23101586416986
HAWK-C                  
1 43799U 18099AT  26193.72865411  .00005004  00000+0  17915-3 0  9998
2 43799  97.3881 246.6730 0040041 192.5496 167.4750 15.28466075417818
SALSAT                  
1 46495U 20068K   26193.91391395  .00004828  00000+0  16824-3 0  9990
2 46495  97.8853 198.5521 0008922 201.3461 158.7407 15.30153171319292
HAWK-2C                 
1 47502U 21006CT  26194.16572606  .00004014  00000+0  12052-3 0  9993
2 47502  97.2268 237.9600 0008628 106.6131 253.6060 15.34973140303480
HAWK-2A                 
1 47505U 21006CW  26194.16797015  .00003988  00000+0  11972-3 0  9998
2 47505  97.2311 238.6553 0008146 109.8797 250.3325 15.34987922303486
HAWK-2B                 
1 47508U 21006CZ  26194.03129617  .00004954  00000+0  14753-3 0  9998
2 47508  97.2180 236.8123 0008680 108.6598 251.5589 15.35117562303464
HAWK-3B                 
1 48931U 21059BE  26193.55364624  .00032206  00000+0  25051-3 0  9996
2 48931  97.6638  32.7011 0004238 208.8876 151.2152 15.71695978281833
HAWK-3C                 
1 48948U 21059BX  26193.55333511  .00035057  00000+0  27246-3 0  9990
2 48948  97.6757  38.4300 0004501 208.2392 151.8627 15.71698478281838
HAWK-3A                 
1 48957U 21059CG  26193.93522470  .00037729  00000+0  29267-3 0  9999
2 48957  97.6702  36.0341 0004409 210.6539 149.4466 15.71730090281891
HAWK-5C                 
1 52754U 22057Y   26194.15915110  .00011567  00000+0  19204-3 0  9992
2 52754  97.6607 355.5223 0003018 354.7970   5.3250 15.52278384230377
HAWK-5B                 
1 52756U 22057AA  26194.15896372  .00011427  00000+0  18974-3 0  9990
2 52756  97.6622 353.8751 0003666 340.6703  19.4409 15.52275692230371
HAWK-5A                 
1 52757U 22057AB  26194.15876832  .00011533  00000+0  19148-3 0  9992
2 52757  97.6616 354.7055 0003539 346.4015  13.7140 15.52276606230376
